{
  "type": "FeatureCollection",
  "features": [
    {
      "type": "Feature",
      "properties": {
        "name": "River Avon Area 1",
        "river": "River Avon",
        "severity": "Flood Alert",
        "fwdCode": "DEMO001",
        "county": "Bristol"
      },
      "geometry": {
        "type": "Polygon",
        "coordinates": [
          [
            [
              -2.6100000000000003,
              51.45
            ],
            [
              -2.6111439026695464,
              51.455313658398275
            ],
            [
              -2.62,
              51.45763673536829
            ],
            [
              -2.6273704285558463,
              51.45442225713351
            ],
            [
              -2.6277295925140765,
              51.45
            ],
            [
              -2.6250368822400896,
              51.44697787065595
            ],
            [
              -2.62,
              51.44450294789676
            ],
            [
              -2.6115352531508265,
              51.4449211518905
            ],
            [
              -2.6100000000000003,
              51.45
            ]
          ]
        ]
      }
    },
    {
      "type": "Feature",
      "properties": {
        "name": "River Frome Area 2",
        "river": "River Frome",
        "severity": "Flood Warning",
        "fwdCode": "DEMO002",
        "county": "Bristol"
      },
      "geometry": {
        "type": "Polygon",
        "coordinates": [
          [
            [
              -2.5674755870455765,
              51.46
            ],
            [
              -2.571000021058263,
              51.465399987365046
            ],
            [
              -2.58,
              51.46625401601451
            ],
            [
              -2.585465647282512,
              51.46327938836951
            ],
            [
              -2.5871232271760105,
              51.46
            ],
            [
              -2.58647833803123,
              51.456112997181265
            ],
            [
              -2.58,
              51.45281742412231
            ],
            [
              -2.570830186412504,
              51.454498111847506
            ],
            [
              -2.5674755870455765,
              51.46
            ]
          ]
        ]
      }
    },
    {
      "type": "Feature",
      "properties": {
        "name": "River Chew Area 3",
        "river": "River Chew",
        "severity": "Severe Flood Warning",
        "fwdCode": "DEMO003",
        "county": "Bristol"
      },
      "geometry": {
        "type": "Polygon",
        "coordinates": [
          [
            [
              -2.537272107719523,
              51.4
            ],
            [
              -2.5426295714441536,
              51.404422257133504
            ],
            [
              -2.55,
              51.404637755508446
            ],
            [
              -2.5550368822400893,
              51.40302212934405
            ],
            [
              -2.559161753505403,
              51.4
            ],
            [
              -2.5584647468491735,
              51.39492115189049
            ],
            [
              -2.55,
              51.39221915515608
            ],
            [
              -2.542054696861434,
              51.39523281811686
            ],
            [
              -2.537272107719523,
              51.4
            ]
          ]
        ]
      }
    },
    {
      "type": "Feature",
      "properties": {
        "name": "River Trym Area 4",
        "river": "River Trym",
        "severity": "Flood Alert",
        "fwdCode": "DEMO004",
        "county": "Bristol"
      },
      "geometry": {
        "type": "Polygon",
        "coordinates": [
          [
            [
              -2.4895766399758203,
              51.41
            ],
            [
              -2.494534352717488,
              51.4132793883695
            ],
            [
              -2.5,
              51.414273936305605
            ],
            [
              -2.50647833803123,
              51.41388700281873
            ],
            [
              -2.5119709597961566,
              51.41
            ],
            [
              -2.509169813587496,
              51.4044981118475
            ],
            [
              -2.5,
              51.40325818672656
            ],
            [
              -2.49408297523799,
              51.40644978514279
            ],
            [
              -2.4895766399758203,
              51.41
            ]
          ]
        ]
      }
    },
    {
      "type": "Feature",
      "properties": {
        "name": "River Boyd Area 5",
        "river": "River Boyd",
        "severity": "Flood Warning",
        "fwdCode": "DEMO005",
        "county": "Bristol"
      },
      "geometry": {
        "type": "Polygon",
        "coordinates": [
          [
            [
              -2.672270407485924,
              51.48
            ],
            [
              -2.6749631177599107,
              51.48302212934405
            ],
            [
              -2.68,
              51.48549705210324
            ],
            [
              -2.688464746849174,
              51.4850788481095
            ],
            [
              -2.6929680747398703,
              51.48
            ],
            [
              -2.687945303138566,
              51.47523281811686
            ],
            [
              -2.68,
              51.4749792379996
            ],
            [
              -2.675050231756651,
              51.47703013905399
            ],
            [
              -2.672270407485924,
              51.48
            ]
          ]
        ]
      }
    },
    {
      "type": "Feature",
      "properties": {
        "name": "River Avon Area 6",
        "river": "River Avon",
        "severity": "Severe Flood Warning",
        "fwdCode": "DEMO006",
        "county": "Bristol"
      },
      "geometry": {
        "type": "Polygon",
        "coordinates": [
          [
            [
              -2.5928767728239897,
              51.42
            ],
            [
              -2.59352166196877,
              51.42388700281874
            ],
            [
              -2.6,
              51.427182575877694
            ],
            [
              -2.609169813587496,
              51.425501888152496
            ],
            [
              -2.611236355455725,
              51.42
            ],
            [
              -2.60591702476201,
              51.416449785142795
            ],
            [
              -2.6,
              51.415799982371794
            ],
            [
              -2.5940671752348923,
              51.41644030514094
            ],
            [
              -2.5928767728239897,
              51.42
            ]
          ]
        ]
      }
    },
    {
      "type": "Feature",
      "properties": {
        "name": "River Frome Area 7",
        "river": "River Frome",
        "severity": "Flood Alert",
        "fwdCode": "DEMO007",
        "county": "Bristol"
      },
      "geometry": {
        "type": "Polygon",
        "coordinates": [
          [
            [
              -2.720838246494597,
              51.44
            ],
            [
              -2.7215352531508263,
              51.4450788481095
            ],
            [
              -2.73,
              51.44778084484392
            ],
            [
              -2.7379453031385657,
              51.44476718188314
            ],
            [
              -2.738367936667332,
              51.44
            ],
            [
              -2.7349497682433492,
              51.43703013905399
            ],
            [
              -2.73,
              51.4349658312524
            ],
            [
              -2.722037623305221,
              51.43522257398313
            ],
            [
              -2.720838246494597,
              51.44
            ]
          ]
        ]
      }
    },
    {
      "type": "Feature",
      "properties": {
        "name": "River Chew Area 8",
        "river": "River Chew",
        "severity": "Flood Warning",
        "fwdCode": "DEMO008",
        "county": "Bristol"
      },
      "geometry": {
        "type": "Polygon",
        "coordinates": [
          [
            [
              -2.4580290402038436,
              51.38
            ],
            [
              -2.460830186412504,
              51.3855018881525
            ],
            [
              -2.47,
              51.38674181327344
            ],
            [
              -2.47591702476201,
              51.38355021485721
            ],
            [
              -2.4770000293803482,
              51.38
            ],
            [
              -2.475932824765108,
              51.37644030514094
            ],
            [
              -2.47,
              51.37324369933371
            ],
            [
              -2.4608275366520194,
              51.37449652199121
            ],
            [
              -2.4580290402038436,
              51.38
            ]
          ]
        ]
      }
    },
    {
      "type": "Feature",
      "properties": {
        "name": "River Trym Area 9",
        "river": "River Trym",
        "severity": "Severe Flood Warning",
        "fwdCode": "DEMO009",
        "county": "Bristol"
      },
      "geometry": {
        "type": "Polygon",
        "coordinates": [
          [
            [
              -2.5570319252601297,
              51.49
            ],
            [
              -2.562054696861434,
              51.49476718188314
            ],
            [
              -2.57,
              51.4950207620004
            ],
            [
              -2.574949768243349,
              51.49296986094601
            ],
            [
              -2.5783902812459987,
              51.49
            ],
            [
              -2.577962376694779,
              51.48522257398314
            ],
            [
              -2.57,
              51.48221690675975
            ],
            [
              -2.5615494633636398,
              51.48492967801818
            ],
            [
              -2.5570319252601297,
              51.49
            ]
          ]
        ]
      }
    },
    {
      "type": "Feature",
      "properties": {
        "name": "River Boyd Area 10",
        "river": "River Boyd",
        "severity": "Flood Alert",
        "fwdCode": "DEMO010",
        "county": "Bristol"
      },
      "geometry": {
        "type": "Polygon",
        "coordinates": [
          [
            [
              -2.508763644544275,
              51.36
            ],
            [
              -2.51408297523799,
              51.363550214857206
            ],
            [
              -2.52,
              51.36420001762821
            ],
            [
              -2.525932824765108,
              51.36355969485906
            ],
            [
              -2.53126050111048,
              51.36
            ],
            [
              -2.529172463347981,
              51.35449652199121
            ],
            [
              -2.52,
              51.35282948188772
            ],
            [
              -2.5135396673507544,
              51.35612380041045
            ],
            [
              -2.508763644544275,
              51.36
            ]
          ]
        ]
      }
    },
    {
      "type": "Feature",
      "properties": {
        "name": "River Avon Area 11",
        "river": "River Avon",
        "severity": "Flood Warning",
        "fwdCode": "DEMO011",
        "county": "Bristol"
      },
      "geometry": {
        "type": "Polygon",
        "coordinates": [
          [
            [
              -2.631632063332668,
              51.4
            ],
            [
              -2.635050231756651,
              51.40296986094601
            ],
            [
              -2.64,
              51.4050341687476
            ],
            [
              -2.647962376694779,
              51.404777426016864
            ],
            [
              -2.6529718220670846,
              51.4
            ],
            [
              -2.64845053663636,
              51.39492967801818
            ],
            [
              -2.64,
              51.394518225969996
            ],
            [
              -2.634968364245906,
              51.39698101854754
            ],
            [
              -2.631632063332668,
              51.4
            ]
          ]
        ]
      }
    },
    {
      "type": "Feature",
      "properties": {
        "name": "River Frome Area 12",
        "river": "River Frome",
        "severity": "Severe Flood Warning",
        "fwdCode": "DEMO012",
        "county": "Bristol"
      },
      "geometry": {
        "type": "Polygon",
        "coordinates": [
          [
            [
              -2.442999970619652,
              51.44
            ],
            [
              -2.4440671752348924,
              51.44355969485906
            ],
            [
              -2.45,
              51.44675630066629
            ],
            [
              -2.459172463347981,
              51.44550347800879
            ],
            [
              -2.4619508635204714,
              51.44
            ],
            [
              -2.456460332649246,
              51.43612380041045
            ],
            [
              -2.45,
              51.43573051548538
            ],
            [
              -2.4445220167124653,
              51.43671321002748
            ],
            [
              -2.442999970619652,
              51.44
            ]
          ]
        ]
      }
    },
    {
      "type": "Feature",
      "properties": {
        "name": "River Chew Area 13",
        "river": "River Chew",
        "severity": "Flood Alert",
        "fwdCode": "DEMO013",
        "county": "Bristol"
      },
      "geometry": {
        "type": "Polygon",
        "coordinates": [
          [
            [
              -2.6916097187540013,
              51.39
            ],
            [
              -2.6920376233052212,
              51.394777426016866
            ],
            [
              -2.7,
              51.39778309324025
            ],
            [
              -2.7084505366363603,
              51.39507032198182
            ],
            [
              -2.709136290050005,
              51.39
            ],
            [
              -2.705031635754094,
              51.386981018547544
            ],
            [
              -2.7,
              51.38535177704419
            ],
            [
              -2.692610994614241,
              51.38556659676855
            ],
            [
              -2.6916097187540013,
              51.39
            ]
          ]
        ]
      }
    },
    {
      "type": "Feature",
      "properties": {
        "name": "River Trym Area 14",
        "river": "River Trym",
        "severity": "Flood Warning",
        "fwdCode": "DEMO014",
        "county": "Bristol"
      },
      "geometry": {
        "type": "Polygon",
        "coordinates": [
          [
            [
              -2.59873949888952,
              51.47
            ],
            [
              -2.600827536652019,
              51.47550347800879
            ],
            [
              -2.61,
              51.47717051811228
            ],
            [
              -2.6164603326492455,
              51.47387619958955
            ],
            [
              -2.6171158075243612,
              51.47
            ],
            [
              -2.615477983287535,
              51.46671321002748
            ],
            [
              -2.61,
              51.46373022102261
            ],
            [
              -2.6009922828552097,
              51.46459536971312
            ],
            [
              -2.59873949888952,
              51.47
            ]
          ]
        ]
      }
    },
    {
      "type": "Feature",
      "properties": {
        "name": "River Boyd Area 15",
        "river": "River Boyd",
        "severity": "Severe Flood Warning",
        "fwdCode": "DEMO015",
        "county": "Bristol"
      },
      "geometry": {
        "type": "Polygon",
        "coordinates": [
          [
            [
              -2.5470281779329156,
              51.43
            ],
            [
              -2.55154946336364,
              51.43507032198182
            ],
            [
              -2.56,
              51.43548177403
            ],
            [
              -2.565031635754094,
              51.433018981452456
            ],
            [
              -2.567747038259685,
              51.43
            ],
            [
              -2.5673890053857593,
              51.42556659676855
            ],
            [
              -2.56,
              51.42235669854869
            ],
            [
              -2.551154117561554,
              51.42469247053693
            ],
            [
              -2.5470281779329156,
              51.43
            ]
          ]
        ]
      }
    },
    {
      "type": "Feature",
      "properties": {
        "name": "River Avon Area 16",
        "river": "River Avon",
        "severity": "Flood Alert",
        "fwdCode": "DEMO016",
        "county": "Bristol"
      },
      "geometry": {
        "type": "Polygon",
        "coordinates": [
          [
            [
              -2.478049136479529,
              51.35
            ],
            [
              -2.4835396673507546,
              51.35387619958955
            ],
            [
              -2.49,
              51.35426948451462
            ],
            [
              -2.495477983287535,
              51.35328678997252
            ],
            [
              -2.5004496316289893,
              51.35
            ],
            [
              -2.4990077171447904,
              51.344595369713126
            ],
            [
              -2.49,
              51.34249401985063
            ],
            [
              -2.4829477086505998,
              51.34576862519036
            ],
            [
              -2.478049136479529,
              51.35
            ]
          ]
        ]
      }
    },
    {
      "type": "Feature",
      "properties": {
        "name": "River Frome Area 17",
        "river": "River Frome",
        "severity": "Flood Warning",
        "fwdCode": "DEMO017",
        "county": "Bristol"
      },
      "geometry": {
        "type": "Polygon",
        "coordinates": [
          [
            [
              -2.6508637099499954,
              51.46
            ],
            [
              -2.654968364245906,
              51.46301898145246
            ],
            [
              -2.66,
              51.46464822295581
            ],
            [
              -2.6673890053857594,
              51.46443340323145
            ],
            [
              -2.672738835752183,
              51.46
            ],
            [
              -2.668845882438446,
              51.45469247053693
            ],
            [
              -2.66,
              51.454015932356725
            ],
            [
              -2.654724036746647,
              51.45683442204799
            ],
            [
              -2.6508637099499954,
              51.46
            ]
          ]
        ]
      }
    },
    {
      "type": "Feature",
      "properties": {
        "name": "River Chew Area 18",
        "river": "River Chew",
        "severity": "Severe Flood Warning",
        "fwdCode": "DEMO018",
        "county": "Bristol"
      },
      "geometry": {
        "type": "Polygon",
        "coordinates": [
          [
            [
              -2.5228841924756384,
              51.47
            ],
            [
              -2.524522016712465,
              51.47328678997252
            ],
            [
              -2.53,
              51.47626977897739
            ],
            [
              -2.53900771714479,
              51.475404630286874
            ],
            [
              -2.542509966915608,
              51.47
            ],
            [
              -2.5370522913494002,
              51.46576862519036
            ],
            [
              -2.53,
              51.46552319672752
            ],
            [
              -2.5248499539901466,
              51.466909972394085
            ],
            [
              -2.5228841924756384,
              51.47
            ]
          ]
        ]
      }
    },
    {
      "type": "Feature",
      "properties": {
        "name": "River Trym Area 19",
        "river": "River Trym",
        "severity": "Flood Alert",
        "fwdCode": "DEMO019",
        "county": "Bristol"
      },
      "geometry": {
        "type": "Polygon",
        "coordinates": [
          [
            [
              -2.582252961740315,
              51.37
            ],
            [
              -2.5826109946142406,
              51.37443340323145
            ],
            [
              -2.59,
              51.37764330145131
            ],
            [
              -2.5988458824384457,
              51.375307529463065
            ],
            [
              -2.5999734460721284,
              51.37
            ],
            [
              -2.595275963253353,
              51.36683442204799
            ],
            [
              -2.59,
              51.36563004105161
            ],
            [
              -2.5832096926481225,
              51.365925815588874
            ],
            [
              -2.582252961740315,
              51.37
            ]
          ]
        ]
      }
    },
    {
      "type": "Feature",
      "properties": {
        "name": "River Boyd Area 20",
        "river": "River Boyd",
        "severity": "Flood Warning",
        "fwdCode": "DEMO020",
        "county": "Bristol"
      },
      "geometry": {
        "type": "Polygon",
        "coordinates": [
          [
            [
              -2.449550368371011,
              51.42
            ],
            [
              -2.4509922828552098,
              51.42540463028688
            ],
            [
              -2.46,
              51.42750598014937
            ],
            [
              -2.4670522913494004,
              51.424231374809644
            ],
            [
              -2.4674613387874746,
              51.42
            ],
            [
              -2.465150046009853,
              51.41690997239409
            ],
            [
              -2.46,
              51.41423823315018
            ],
            [
              -2.4513113014339787,
              51.41478678086039
            ],
            [
              -2.449550368371011,
              51.42
            ]
          ]
        ]
      }
    }
  ]
}